BANDWAGON-2 OBJECT D    
1 62380U 24247D   26068.52261193  .00011259  00000+0  40119-3 0  9994
2 62380  44.9954 115.6710 0003488 351.1453   8.9368 15.29076102 67732
STARLINK-36466          
1 67358U 26003AA  26068.47097826  .00026501  00000+0  96968-3 0  9999
2 67358  43.0005 228.0147 0001338 282.9558  77.1145 15.27560079  8792
